[{"OBJECT_NAME":"OBJECT M","OBJECT_ID":"2024-205M","EPOCH":"2026-03-09T22:23:47.520096","MEAN_MOTION":15.27663844,"ECCENTRICITY":0.00036602,"INCLINATION":97.3915,"RA_OF_ASC_NODE":144.193,"ARG_OF_PERICENTER":310.2554,"MEAN_ANOMALY":49.8364,"EPHEMERIS_TYPE":0,"CLASSIFICATION_TYPE":"U","NORAD_CAT_ID":61905,"ELEMENT_SET_NO":999,"REV_AT_EPOCH":7334,"BSTAR":0.00036391974,"MEAN_MOTION_DOT":9.771e-5,"MEAN_MOTION_DDOT":0},{"OBJECT_NAME":"STARLINK-34090","OBJECT_ID":"2025-099AA","EPOCH":"2026-03-09T06:51:12.828096","MEAN_MOTION":15.27579691,"ECCENTRICITY":0.00014427,"INCLINATION":43.0016,"RA_OF_ASC_NODE":175.1071,"ARG_OF_PERICENTER":278.2698,"MEAN_ANOMALY":81.799,"EPHEMERIS_TYPE":0,"CLASSIFICATION_TYPE":"U","NORAD_CAT_ID":63976,"ELEMENT_SET_NO":999,"REV_AT_EPOCH":4722,"BSTAR":0.00091973223,"MEAN_MOTION_DOT":0.00025133,"MEAN_MOTION_DDOT":0}]
